JILIN-1 GAOFEN 3A       
1 44312U 19032C   26198.97317969  .00006658  00000+0  21276-3 0  9991
2 44312  44.9731 187.4185 0004854 125.6495 234.4842 15.33226488392565
JILIN-1 GAOFEN 2A       
1 44777U 19075A   26198.94007965  .00007647  00000+0  19343-3 0  9993
2 44777  97.4959 283.4650 0004917 343.9482  16.1607 15.40056179369610
JILIN-1 GAOFEN 2B       
1 44836U 19086A   26198.93864416  .00003246  00000+0  14918-3 0  9996
2 44836  97.4868 270.7413 0013490 205.6963 154.3604 15.21016905365165
JILIN-1 GAOFEN 3E       
1 46457U 20065D   26198.96534803  .00047218  00000+0  43415-3 0  9994
2 46457  97.2203 252.3681 0009736  63.1031 297.1224 15.67499018324575
JILIN-1 GAOFEN 3F       
1 46458U 20065E   26198.92181921  .00040061  00000+0  42097-3 0  9994
2 46458  97.2159 249.4989 0011084  48.6414 311.5797 15.64160006324504
JILIN-1 GAOFEN 3G       
1 46459U 20065F   26198.91230756  .00085180  00000+0  51378-3 0  9998
2 46459  97.2216 256.8685 0005865 260.5442  99.5162 15.77395911324777
JILIN-1 GAOFEN 3H       
1 46460U 20065G   26198.90030112  .00063480  00000+0  47176-3 0  9993
2 46460  97.2165 252.9692 0006861 194.2732 165.8339 15.72623610324700
JILIN-1 GAOFEN 2D       
1 49256U 21086A   26198.95837983  .00002451  00000+0  14932-3 0  9994
2 49256  97.6512 321.6636 0033833  41.4450 318.9337 15.10877435265360
JILIN-1 GAOFEN 2F       
1 49338U 21097A   26198.89293476  .00002418  00000+0  16088-3 0  9990
2 49338  97.6740 325.0256 0019939 121.1343 239.1844 15.07960898260946
JILIN-1 GAOFEN 3D27     
1 52444U 22048B   26198.88316043  .00133126  00000+0  59662-3 0  9990
2 52444  97.5739 315.8043 0005661 239.2282 120.8430 15.83784249234324
JILIN-1 GAOFEN 3D28     
1 52445U 22048C   26198.80508662  .00177708  13513-4  62841-3 0  9998
2 52445  97.5666 316.0387 0005197 239.9032 120.1725 15.89052072234375
JILIN-1 GAOFEN 3D29     
1 52446U 22048D   26198.93090817  .00135838  00000+0  60242-3 0  9994
2 52446  97.5732 316.2233 0004564 223.3508 136.7402 15.84007920234354
JILIN-1 GAOFEN 3D31     
1 52448U 22048F   26198.87762960  .00278368  32520-4  70630-3 0  9999
2 52448  97.5723 317.5609 0006183 241.7190 118.3462 15.95444734234450
JILIN-1 GAOFEN 03D09    
1 53445U 22098B   26198.96021991  .00058248  00000+0  47273-3 0  9997
2 53445  97.5633 331.0400 0003601 223.9412 136.1564 15.70560986219454
JILIN-1 GAOFEN 03D43    
1 53448U 22098E   26198.92957167  .00067394  00000+0  46477-3 0  9996
2 53448  97.5624 332.1833 0003830 222.0088 138.0883 15.74388424219524
JILIN-1 GAOFEN 03D08    
1 54251U 22155A   26198.89604657  .00043451  00000+0  39601-3 0  9991
2 54251  97.6245 346.8350 0004407 218.3957 141.6990 15.67785535204627
