{"fetched_at":"2026-07-18T06:28:13.986Z","source":"https://celestrak.org/NORAD/elements/gp.php?NAME=JILIN&FORMAT=JSON","constellation":"jilin-1-gaofen","records":[{"OBJECT_NAME":"JILIN-1 GAOFEN 3A","OBJECT_ID":"2019-032C","EPOCH":"2026-07-17T23:21:22.725216","CLASSIFICATION_TYPE":"U","MEAN_MOTION":15.33226488,"ECCENTRICITY":0.00048545,"INCLINATION":44.9731,"RA_OF_ASC_NODE":187.4185,"ARG_OF_PERICENTER":125.6495,"MEAN_ANOMALY":234.4842,"EPHEMERIS_TYPE":0,"NORAD_CAT_ID":44312,"ELEMENT_SET_NO":999,"REV_AT_EPOCH":39256,"BSTAR":0.00021276215,"MEAN_MOTION_DOT":0.00006658,"MEAN_MOTION_DDOT":0},{"OBJECT_NAME":"JILIN-1 GAOFEN 2A","OBJECT_ID":"2019-075A","EPOCH":"2026-07-17T22:33:42.881760","CLASSIFICATION_TYPE":"U","MEAN_MOTION":15.40056179,"ECCENTRICITY":0.00049172,"INCLINATION":97.4959,"RA_OF_ASC_NODE":283.465,"ARG_OF_PERICENTER":343.9482,"MEAN_ANOMALY":16.1607,"EPHEMERIS_TYPE":0,"NORAD_CAT_ID":44777,"ELEMENT_SET_NO":999,"REV_AT_EPOCH":36961,"BSTAR":0.00019342743,"MEAN_MOTION_DOT":0.00007647,"MEAN_MOTION_DDOT":0},{"OBJECT_NAME":"JILIN-1 GAOFEN 2B","OBJECT_ID":"2019-086A","EPOCH":"2026-07-17T22:31:38.855424","CLASSIFICATION_TYPE":"U","MEAN_MOTION":15.21016905,"ECCENTRICITY":0.00134902,"INCLINATION":97.4868,"RA_OF_ASC_NODE":270.7413,"ARG_OF_PERICENTER":205.6963,"MEAN_ANOMALY":154.3604,"EPHEMERIS_TYPE":0,"NORAD_CAT_ID":44836,"ELEMENT_SET_NO":999,"REV_AT_EPOCH":36516,"BSTAR":0.00014918202,"MEAN_MOTION_DOT":0.00003246,"MEAN_MOTION_DDOT":0},{"OBJECT_NAME":"JILIN-1 GAOFEN 3E","OBJECT_ID":"2020-065D","EPOCH":"2026-07-17T23:10:06.069792","CLASSIFICATION_TYPE":"U","MEAN_MOTION":15.67499018,"ECCENTRICITY":0.0009736,"INCLINATION":97.2203,"RA_OF_ASC_NODE":252.3681,"ARG_OF_PERICENTER":63.1031,"MEAN_ANOMALY":297.1224,"EPHEMERIS_TYPE":0,"NORAD_CAT_ID":46457,"ELEMENT_SET_NO":999,"REV_AT_EPOCH":32457,"BSTAR":0.00043415342,"MEAN_MOTION_DOT":0.00047218,"MEAN_MOTION_DDOT":0},{"OBJECT_NAME":"JILIN-1 GAOFEN 3F","OBJECT_ID":"2020-065E","EPOCH":"2026-07-17T22:07:25.179744","CLASSIFICATION_TYPE":"U","MEAN_MOTION":15.64160006,"ECCENTRICITY":0.00110843,"INCLINATION":97.2159,"RA_OF_ASC_NODE":249.4989,"ARG_OF_PERICENTER":48.6414,"MEAN_ANOMALY":311.5797,"EPHEMERIS_TYPE":0,"NORAD_CAT_ID":46458,"ELEMENT_SET_NO":999,"REV_AT_EPOCH":32450,"BSTAR":0.00042096806,"MEAN_MOTION_DOT":0.00040061,"MEAN_MOTION_DDOT":0},{"OBJECT_NAME":"JILIN-1 GAOFEN 3G","OBJECT_ID":"2020-065F","EPOCH":"2026-07-17T21:53:43.373184","CLASSIFICATION_TYPE":"U","MEAN_MOTION":15.77395911,"ECCENTRICITY":0.00058657,"INCLINATION":97.2216,"RA_OF_ASC_NODE":256.8685,"ARG_OF_PERICENTER":260.5442,"MEAN_ANOMALY":99.5162,"EPHEMERIS_TYPE":0,"NORAD_CAT_ID":46459,"ELEMENT_SET_NO":999,"REV_AT_EPOCH":32477,"BSTAR":0.00051378417,"MEAN_MOTION_DOT":0.0008518,"MEAN_MOTION_DDOT":0},{"OBJECT_NAME":"JILIN-1 GAOFEN 3H","OBJECT_ID":"2020-065G","EPOCH":"2026-07-17T21:36:26.016768","CLASSIFICATION_TYPE":"U","MEAN_MOTION":15.7262361,"ECCENTRICITY":0.00068612,"INCLINATION":97.2165,"RA_OF_ASC_NODE":252.9692,"ARG_OF_PERICENTER":194.2732,"MEAN_ANOMALY":165.8339,"EPHEMERIS_TYPE":0,"NORAD_CAT_ID":46460,"ELEMENT_SET_NO":999,"REV_AT_EPOCH":32470,"BSTAR":0.00047176234,"MEAN_MOTION_DOT":0.0006348,"MEAN_MOTION_DDOT":0},{"OBJECT_NAME":"JILIN-1 GAOFEN 2D","OBJECT_ID":"2021-086A","EPOCH":"2026-07-17T23:00:04.017312","CLASSIFICATION_TYPE":"U","MEAN_MOTION":15.10877435,"ECCENTRICITY":0.00338338,"INCLINATION":97.6512,"RA_OF_ASC_NODE":321.6636,"ARG_OF_PERICENTER":41.445,"MEAN_ANOMALY":318.9337,"EPHEMERIS_TYPE":0,"NORAD_CAT_ID":49256,"ELEMENT_SET_NO":999,"REV_AT_EPOCH":26536,"BSTAR":0.00014932037,"MEAN_MOTION_DOT":0.00002451,"MEAN_MOTION_DDOT":0},{"OBJECT_NAME":"JILIN-1 GAOFEN 2F","OBJECT_ID":"2021-097A","EPOCH":"2026-07-17T21:25:49.563264","CLASSIFICATION_TYPE":"U","MEAN_MOTION":15.07960898,"ECCENTRICITY":0.00199391,"INCLINATION":97.674,"RA_OF_ASC_NODE":325.0256,"ARG_OF_PERICENTER":121.1343,"MEAN_ANOMALY":239.1844,"EPHEMERIS_TYPE":0,"NORAD_CAT_ID":49338,"ELEMENT_SET_NO":999,"REV_AT_EPOCH":26094,"BSTAR":0.00016087841,"MEAN_MOTION_DOT":0.00002418,"MEAN_MOTION_DDOT":0},{"OBJECT_NAME":"JILIN-1 GAOFEN 3D27","OBJECT_ID":"2022-048B","EPOCH":"2026-07-17T21:11:45.061152","CLASSIFICATION_TYPE":"U","MEAN_MOTION":15.83784249,"ECCENTRICITY":0.00056611,"INCLINATION":97.5739,"RA_OF_ASC_NODE":315.8043,"ARG_OF_PERICENTER":239.2282,"MEAN_ANOMALY":120.843,"EPHEMERIS_TYPE":0,"NORAD_CAT_ID":52444,"ELEMENT_SET_NO":999,"REV_AT_EPOCH":23432,"BSTAR":0.00059661926,"MEAN_MOTION_DOT":0.00133126,"MEAN_MOTION_DDOT":0},{"OBJECT_NAME":"JILIN-1 GAOFEN 3D28","OBJECT_ID":"2022-048C","EPOCH":"2026-07-17T19:19:19.483968","CLASSIFICATION_TYPE":"U","MEAN_MOTION":15.89052072,"ECCENTRICITY":0.00051975,"INCLINATION":97.5666,"RA_OF_ASC_NODE":316.0387,"ARG_OF_PERICENTER":239.9032,"MEAN_ANOMALY":120.1725,"EPHEMERIS_TYPE":0,"NORAD_CAT_ID":52445,"ELEMENT_SET_NO":999,"REV_AT_EPOCH":23437,"BSTAR":0.0006284143,"MEAN_MOTION_DOT":0.00177708,"MEAN_MOTION_DDOT":0.000013512701},{"OBJECT_NAME":"JILIN-1 GAOFEN 3D29","OBJECT_ID":"2022-048D","EPOCH":"2026-07-17T22:20:30.465888","CLASSIFICATION_TYPE":"U","MEAN_MOTION":15.8400792,"ECCENTRICITY":0.00045644,"INCLINATION":97.5732,"RA_OF_ASC_NODE":316.2233,"ARG_OF_PERICENTER":223.3508,"MEAN_ANOMALY":136.7402,"EPHEMERIS_TYPE":0,"NORAD_CAT_ID":52446,"ELEMENT_SET_NO":999,"REV_AT_EPOCH":23435,"BSTAR":0.0006024237,"MEAN_MOTION_DOT":0.00135838,"MEAN_MOTION_DDOT":0},{"OBJECT_NAME":"JILIN-1 GAOFEN 3D31","OBJECT_ID":"2022-048F","EPOCH":"2026-07-17T21:03:47.197440","CLASSIFICATION_TYPE":"U","MEAN_MOTION":15.95444734,"ECCENTRICITY":0.00061839,"INCLINATION":97.5723,"RA_OF_ASC_NODE":317.5609,"ARG_OF_PERICENTER":241.719,"MEAN_ANOMALY":118.3462,"EPHEMERIS_TYPE":0,"NORAD_CAT_ID":52448,"ELEMENT_SET_NO":999,"REV_AT_EPOCH":23445,"BSTAR":0.00070630475,"MEAN_MOTION_DOT":0.00278368,"MEAN_MOTION_DDOT":0.000032519933},{"OBJECT_NAME":"JILIN-1 GAOFEN 03D09","OBJECT_ID":"2022-098B","EPOCH":"2026-07-17T23:02:43.000224","CLASSIFICATION_TYPE":"U","MEAN_MOTION":15.70560986,"ECCENTRICITY":0.00036013,"INCLINATION":97.5633,"RA_OF_ASC_NODE":331.04,"ARG_OF_PERICENTER":223.9412,"MEAN_ANOMALY":136.1564,"EPHEMERIS_TYPE":0,"NORAD_CAT_ID":53445,"ELEMENT_SET_NO":999,"REV_AT_EPOCH":21945,"BSTAR":0.00047273383,"MEAN_MOTION_DOT":0.00058248,"MEAN_MOTION_DDOT":0},{"OBJECT_NAME":"JILIN-1 GAOFEN 03D43","OBJECT_ID":"2022-098E","EPOCH":"2026-07-17T22:18:34.992288","CLASSIFICATION_TYPE":"U","MEAN_MOTION":15.74388424,"ECCENTRICITY":0.00038305,"INCLINATION":97.5624,"RA_OF_ASC_NODE":332.1833,"ARG_OF_PERICENTER":222.0088,"MEAN_ANOMALY":138.0883,"EPHEMERIS_TYPE":0,"NORAD_CAT_ID":53448,"ELEMENT_SET_NO":999,"REV_AT_EPOCH":21952,"BSTAR":0.0004647685,"MEAN_MOTION_DOT":0.00067394,"MEAN_MOTION_DDOT":0},{"OBJECT_NAME":"JILIN-1 GAOFEN 03D08","OBJECT_ID":"2022-155A","EPOCH":"2026-07-17T21:30:18.423648","CLASSIFICATION_TYPE":"U","MEAN_MOTION":15.67785535,"ECCENTRICITY":0.00044078,"INCLINATION":97.6245,"RA_OF_ASC_NODE":346.835,"ARG_OF_PERICENTER":218.3957,"MEAN_ANOMALY":141.699,"EPHEMERIS_TYPE":0,"NORAD_CAT_ID":54251,"ELEMENT_SET_NO":999,"REV_AT_EPOCH":20462,"BSTAR":0.00039601172,"MEAN_MOTION_DOT":0.00043451,"MEAN_MOTION_DDOT":0}]}
